{
  "norad_id": 43719,
  "name": "HYSIS",
  "history": [
    {
      "epoch": "2026-03-28T21:16:49.012032Z",
      "apogee_km": 634.9794617737607,
      "perigee_km": 632.4940330052614,
      "latitude_deg": -6.122016507295707e-06,
      "longitude_deg": 9.735498042557031,
      "height_km": 636.3175442025315,
      "semi_major_axis_km": 7011.873747389511,
      "eccentricity": 0.00017723,
      "inclination_deg": 97.9906,
      "raan_deg": 155.2404,
      "arg_perigee_deg": 69.5932,
      "mean_anomaly_deg": 290.5469,
      "mean_motion_rev_day": 14.78603161
    },
    {
      "epoch": "2026-03-29T03:46:36.552864Z",
      "apogee_km": 634.9532869700588,
      "perigee_km": 632.5117540030269,
      "latitude_deg": -2.2985621357950933e-05,
      "longitude_deg": -87.71038974840475,
      "height_km": 636.3297711265772,
      "semi_major_axis_km": 7011.869520486543,
      "eccentricity": 0.0001741,
      "inclination_deg": 97.9908,
      "raan_deg": 155.5094,
      "arg_perigee_deg": 70.0311,
      "mean_anomaly_deg": 290.1087,
      "mean_motion_rev_day": 14.78604498
    },
    {
      "epoch": "2026-03-30T04:08:19.879584Z",
      "apogee_km": 634.9232585862119,
      "perigee_km": 632.5237999131023,
      "latitude_deg": -7.43551630533771e-05,
      "longitude_deg": -93.1336231830201,
      "height_km": 636.307542267057,
      "semi_major_axis_km": 7011.860529249657,
      "eccentricity": 0.0001711,
      "inclination_deg": 97.9907,
      "raan_deg": 156.5172,
      "arg_perigee_deg": 68.9859,
      "mean_anomaly_deg": 291.1534,
      "mean_motion_rev_day": 14.78607342
    },
    {
      "epoch": "2026-03-30T07:23:13.642656Z",
      "apogee_km": 634.9255642244116,
      "perigee_km": 632.5179723977235,
      "latitude_deg": 2.143403373122853e-05,
      "longitude_deg": -141.8565508070384,
      "height_km": 636.295196029487,
      "semi_major_axis_km": 7011.858768311067,
      "eccentricity": 0.00017168,
      "inclination_deg": 97.9908,
      "raan_deg": 156.6517,
      "arg_perigee_deg": 68.5208,
      "mean_anomaly_deg": 291.6186,
      "mean_motion_rev_day": 14.78607899
    }
  ]
}